{
  "type": "FeatureCollection",
  "features": [
    {
      "type": "Feature",
      "properties": {
        "norad_id": 41589,
        "name": "EUTELSAT 117 WEST B (WAAS/PRN 131)",
        "group": "gnss",
        "lat": 0.003496992759305899,
        "lon": 172.30600125791088,
        "alt_km": 35785.9915075265,
        "timestamp": "2025-12-11T13:55:02.407510+00:00",
        "meta_object_name": "EUTELSAT 117 WEST B (WAAS/PRN 131)",
        "meta_object_id": "2016-038B",
        "meta_epoch": "2025-12-10T23:15:27.743040",
        "meta_mean_motion": 1.00269754,
        "meta_eccentricity": 3.232e-05,
        "meta_inclination": 0.0411,
        "meta_ra_of_asc_node": 158.7318,
        "meta_arg_of_pericenter": 311.552,
        "meta_mean_anomaly": 201.5309,
        "meta_ephemeris_type": 0,
        "meta_classification_type": "U",
        "meta_norad_cat_id": 41589,
        "meta_element_set_no": 999,
        "meta_rev_at_epoch": 3477,
        "meta_bstar": 0,
        "meta_mean_motion_dot": -6e-08,
        "meta_mean_motion_ddot": 0,
        "tle_line1": "1 41589U 16038B   25344.96907110 -.00000006  00000+0  00000+0 0  9991",
        "tle_line2": "2 41589   0.0411 158.7318 0000323 311.5520 201.5309  1.00269754 34778"
      },
      "geometry": {
        "type": "Point",
        "coordinates": [
          172.30600125791088,
          0.003496992759305899
        ]
      }
    },
    {
      "type": "Feature",
      "properties": {
        "norad_id": 41859,
        "name": "GSAT0207 (GALILEO 15)",
        "group": "gnss",
        "lat": -22.63468459739904,
        "lon": 89.54722245577194,
        "alt_km": 23218.746924533403,
        "timestamp": "2025-12-11T13:55:02.407522+00:00",
        "meta_object_name": "GSAT0207 (GALILEO 15)",
        "meta_object_id": "2016-069A",
        "meta_epoch": "2025-12-09T20:46:23.344608",
        "meta_mean_motion": 1.70474355,
        "meta_eccentricity": 0.00021941,
        "meta_inclination": 55.3802,
        "meta_ra_of_asc_node": 106.3298,
        "meta_arg_of_pericenter": 323.9491,
        "meta_mean_anomaly": 36.0038,
        "meta_ephemeris_type": 0,
        "meta_classification_type": "U",
        "meta_norad_cat_id": 41859,
        "meta_element_set_no": 999,
        "meta_rev_at_epoch": 5617,
        "meta_bstar": 0,
        "meta_mean_motion_dot": 1.1e-07,
        "meta_mean_motion_ddot": 0,
        "tle_line1": "1 41859U 16069A   25343.86554797  .00000011  00000+0  00000+0 0  9997",
        "tle_line2": "2 41859  55.3802 106.3298 0002194 323.9491  36.0038  1.70474355 56173"
      },
      "geometry": {
        "type": "Point",
        "coordinates": [
          89.54722245577194,
          -22.63468459739904
        ]
      }
    },
    {
      "type": "Feature",
      "properties": {
        "norad_id": 41860,
        "name": "GSAT0212 (GALILEO 16)",
        "group": "gnss",
        "lat": 46.59571935184336,
        "lon": 153.1329817255229,
        "alt_km": 23211.078234589946,
        "timestamp": "2025-12-11T13:55:02.407535+00:00",
        "meta_object_name": "GSAT0212 (GALILEO 16)",
        "meta_object_id": "2016-069B",
        "meta_epoch": "2025-12-09T03:10:58.927872",
        "meta_mean_motion": 1.70474546,
        "meta_eccentricity": 0.00021877,
        "meta_inclination": 55.3778,
        "meta_ra_of_asc_node": 106.3455,
        "meta_arg_of_pericenter": 30.0277,
        "meta_mean_anomaly": 329.9496,
        "meta_ephemeris_type": 0,
        "meta_classification_type": "U",
        "meta_norad_cat_id": 41860,
        "meta_element_set_no": 999,
        "meta_rev_at_epoch": 5641,
        "meta_bstar": 0,
        "meta_mean_motion_dot": 1e-07,
        "meta_mean_motion_ddot": 0,
        "tle_line1": "1 41860U 16069B   25343.13262648  .00000010  00000+0  00000+0 0  9999",
        "tle_line2": "2 41860  55.3778 106.3455 0002187  30.0277 329.9496  1.70474546 56413"
      },
      "geometry": {
        "type": "Point",
        "coordinates": [
          153.1329817255229,
          46.59571935184336
        ]
      }
    },
    {
      "type": "Feature",
      "properties": {
        "norad_id": 41861,
        "name": "GSAT0213 (GALILEO 17)",
        "group": "gnss",
        "lat": -13.39913047618266,
        "lon": -64.26265253319096,
        "alt_km": 23223.72904378878,
        "timestamp": "2025-12-11T13:55:02.407555+00:00",
        "meta_object_name": "GSAT0213 (GALILEO 17)",
        "meta_object_id": "2016-069C",
        "meta_epoch": "2025-12-08T21:55:35.814144",
        "meta_mean_motion": 1.70474823,
        "meta_eccentricity": 0.00022753,
        "meta_inclination": 55.38,
        "meta_ra_of_asc_node": 106.3592,
        "meta_arg_of_pericenter": 283.5203,
        "meta_mean_anomaly": 76.4183,
        "meta_ephemeris_type": 0,
        "meta_classification_type": "U",
        "meta_norad_cat_id": 41861,
        "meta_element_set_no": 999,
        "meta_rev_at_epoch": 5627,
        "meta_bstar": 0,
        "meta_mean_motion_dot": 1e-07,
        "meta_mean_motion_ddot": 0,
        "tle_line1": "1 41861U 16069C   25342.91360896  .00000010  00000+0  00000+0 0  9999",
        "tle_line2": "2 41861  55.3800 106.3592 0002275 283.5203  76.4183  1.70474823 56273"
      },
      "geometry": {
        "type": "Point",
        "coordinates": [
          -64.26265253319096,
          -13.39913047618266
        ]
      }
    },
    {
      "type": "Feature",
      "properties": {
        "norad_id": 41862,
        "name": "GSAT0214 (GALILEO 18)",
        "group": "gnss",
        "lat": 51.99910732017369,
        "lon": -135.78427142043685,
        "alt_km": 23219.940444009484,
        "timestamp": "2025-12-11T13:55:02.407574+00:00",
        "meta_object_name": "GSAT0214 (GALILEO 18)",
        "meta_object_id": "2016-069D",
        "meta_epoch": "2025-12-10T19:39:52.929504",
        "meta_mean_motion": 1.70474684,
        "meta_eccentricity": 0.00013288,
        "meta_inclination": 55.3792,
        "meta_ra_of_asc_node": 106.2992,
        "meta_arg_of_pericenter": 290.9764,
        "meta_mean_anomaly": 68.9794,
        "meta_ephemeris_type": 0,
        "meta_classification_type": "U",
        "meta_norad_cat_id": 41862,
        "meta_element_set_no": 999,
        "meta_rev_at_epoch": 5643,
        "meta_bstar": 0,
        "meta_mean_motion_dot": 1e-07,
        "meta_mean_motion_ddot": 0,
        "tle_line1": "1 41862U 16069D   25344.81936261  .00000010  00000+0  00000+0 0  9996",
        "tle_line2": "2 41862  55.3792 106.2992 0001328 290.9764  68.9794  1.70474684 56436"
      },
      "geometry": {
        "type": "Point",
        "coordinates": [
          -135.78427142043685,
          51.99910732017369
        ]
      }
    },
    {
      "type": "Feature",
      "properties": {
        "norad_id": 42709,
        "name": "SES-15 (WAAS/PRN 133)",
        "group": "gnss",
        "lat": 0.0014906405842025105,
        "lon": 160.116860128957,
        "alt_km": 35784.14471151767,
        "timestamp": "2025-12-11T13:55:02.407587+00:00",
        "meta_object_name": "SES-15 (WAAS/PRN 133)",
        "meta_object_id": "2017-026A",
        "meta_epoch": "2025-12-10T23:12:05.566176",
        "meta_mean_motion": 1.00271075,
        "meta_eccentricity": 7.736e-05,
        "meta_inclination": 0.0183,
        "meta_ra_of_asc_node": 344.9808,
        "meta_arg_of_pericenter": 225.0397,
        "meta_mean_anomaly": 88.7675,
        "meta_ephemeris_type": 0,
        "meta_classification_type": "U",
        "meta_norad_cat_id": 42709,
        "meta_element_set_no": 999,
        "meta_rev_at_epoch": 554,
        "meta_bstar": 0,
        "meta_mean_motion_dot": 6.5e-07,
        "meta_mean_motion_ddot": 0,
        "tle_line1": "1 42709U 17026A   25344.96673109  .00000065  00000+0  00000+0 0  9996",
        "tle_line2": "2 42709   0.0183 344.9808 0000773 225.0397  88.7675  1.00271075  5545"
      },
      "geometry": {
        "type": "Point",
        "coordinates": [
          160.116860128957,
          0.0014906405842025105
        ]
      }
    },
    {
      "type": "Feature",
      "properties": {
        "norad_id": 42738,
        "name": "QZS-2 (QZSS/PRN 194)",
        "group": "gnss",
        "lat": 2.2635662303941206,
        "lon": 63.19258154596594,
        "alt_km": 35709.247549301916,
        "timestamp": "2025-12-11T13:55:02.407600+00:00",
        "meta_object_name": "QZS-2 (QZSS/PRN 194)",
        "meta_object_id": "2017-028A",
        "meta_epoch": "2025-12-10T14:10:29.974080",
        "meta_mean_motion": 1.00283617,
        "meta_eccentricity": 0.07578719,
        "meta_inclination": 39.7178,
        "meta_ra_of_asc_node": 245.915,
        "meta_arg_of_pericenter": 269.4546,
        "meta_mean_anomaly": 278.5596,
        "meta_ephemeris_type": 0,
        "meta_classification_type": "U",
        "meta_norad_cat_id": 42738,
        "meta_element_set_no": 999,
        "meta_rev_at_epoch": 573,
        "meta_bstar": 0,
        "meta_mean_motion_dot": -1.97e-06,
        "meta_mean_motion_ddot": 0,
        "tle_line1": "1 42738U 17028A   25344.59062470 -.00000197  00000+0  00000+0 0  9999",
        "tle_line2": "2 42738  39.7178 245.9150 0757871 269.4546 278.5596  1.00283617  5733"
      },
      "geometry": {
        "type": "Point",
        "coordinates": [
          63.19258154596594,
          2.2635662303941206
        ]
      }
    }
  ]
}